[Satellite]
VERSION=1.1
NAME=ZHONGXING-6B
NICKNAME=ZHONGXING-6B
TLE1=1 31800U 07031A   17186.25915270 -.00000366  00000-0  00000-0 0  9993
TLE2=2 31800   0.0214  73.3914 0002571  28.2503  30.6227  1.00270514 36664
